{
  "type": "FeatureCollection",
  "features": [
    {
      "type": "Feature",
      "properties": {
        "norad_id": 64751,
        "name": "PROGRESS-MS 31",
        "group": "stations",
        "lat": -40.22645730067913,
        "lon": 60.55660661085467,
        "alt_km": 419.92232557855095,
        "timestamp": "2025-12-20T18:51:30.476830+00:00",
        "meta_object_name": "PROGRESS-MS 31",
        "meta_object_id": "2025-146A",
        "meta_epoch": "2025-12-20T14:27:14.498496",
        "meta_mean_motion": 15.49685042,
        "meta_eccentricity": 0.00031934,
        "meta_inclination": 51.6321,
        "meta_ra_of_asc_node": 103.5427,
        "meta_arg_of_pericenter": 277.2005,
        "meta_mean_anomaly": 82.862,
        "meta_ephemeris_type": 0,
        "meta_classification_type": "U",
        "meta_norad_cat_id": 64751,
        "meta_element_set_no": 999,
        "meta_rev_at_epoch": 675,
        "meta_bstar": 0.00012983891,
        "meta_mean_motion_dot": 6.881e-05,
        "meta_mean_motion_ddot": 0,
        "tle_line1": "1 64751U 25146A   25354.60225114  .00006881  00000+0  12984-3 0  9990",
        "tle_line2": "2 64751  51.6321 103.5427 0003193 277.2005  82.8620 15.49685042  6752"
      },
      "geometry": {
        "type": "Point",
        "coordinates": [
          60.55660661085467,
          -40.22645730067913
        ]
      }
    },
    {
      "type": "Feature",
      "properties": {
        "norad_id": 64786,
        "name": "TIANZHOU-9",
        "group": "stations",
        "lat": 4.930720874971228,
        "lon": -26.547098574642202,
        "alt_km": 388.3016797823775,
        "timestamp": "2025-12-20T18:51:30.476840+00:00",
        "meta_object_name": "TIANZHOU-9",
        "meta_object_id": "2025-149A",
        "meta_epoch": "2025-12-20T09:36:17.868384",
        "meta_mean_motion": 15.59501485,
        "meta_eccentricity": 0.00077102,
        "meta_inclination": 41.4685,
        "meta_ra_of_asc_node": 330.1895,
        "meta_arg_of_pericenter": 98.1704,
        "meta_mean_anomaly": 262.0009,
        "meta_ephemeris_type": 0,
        "meta_classification_type": "U",
        "meta_norad_cat_id": 64786,
        "meta_element_set_no": 999,
        "meta_rev_at_epoch": 25530,
        "meta_bstar": 0.00021960295,
        "meta_mean_motion_dot": 0.00017645,
        "meta_mean_motion_ddot": 0,
        "tle_line1": "1 64786U 25149A   25354.40020681  .00017645  00000+0  21960-3 0  9995",
        "tle_line2": "2 64786  41.4685 330.1895 0007710  98.1704 262.0009 15.59501485255301"
      },
      "geometry": {
        "type": "Point",
        "coordinates": [
          -26.547098574642202,
          4.930720874971228
        ]
      }
    },
    {
      "type": "Feature",
      "properties": {
        "norad_id": 65077,
        "name": "CREW DRAGON 11",
        "group": "stations",
        "lat": -40.226456549530845,
        "lon": 60.55660798508127,
        "alt_km": 419.9223255674533,
        "timestamp": "2025-12-20T18:51:30.476850+00:00",
        "meta_object_name": "CREW DRAGON 11",
        "meta_object_id": "2025-166A",
        "meta_epoch": "2025-12-20T14:27:14.498496",
        "meta_mean_motion": 15.49685042,
        "meta_eccentricity": 0.00031934,
        "meta_inclination": 51.6321,
        "meta_ra_of_asc_node": 103.5427,
        "meta_arg_of_pericenter": 277.2005,
        "meta_mean_anomaly": 82.862,
        "meta_ephemeris_type": 0,
        "meta_classification_type": "U",
        "meta_norad_cat_id": 65077,
        "meta_element_set_no": 999,
        "meta_rev_at_epoch": 214,
        "meta_bstar": 0.00012983891,
        "meta_mean_motion_dot": 6.881e-05,
        "meta_mean_motion_ddot": 0,
        "tle_line1": "1 65077U 25166A   25354.60225114  .00006881  00000+0  12984-3 0  9994",
        "tle_line2": "2 65077  51.6321 103.5427 0003193 277.2005  82.8620 15.49685042  2143"
      },
      "geometry": {
        "type": "Point",
        "coordinates": [
          60.55660798508127,
          -40.226456549530845
        ]
      }
    },
    {
      "type": "Feature",
      "properties": {
        "norad_id": 65304,
        "name": "DRAGON CRS-33",
        "group": "stations",
        "lat": -40.22645598616949,
        "lon": 60.556609015751455,
        "alt_km": 419.9223255591287,
        "timestamp": "2025-12-20T18:51:30.476865+00:00",
        "meta_object_name": "DRAGON CRS-33",
        "meta_object_id": "2025-186A",
        "meta_epoch": "2025-12-20T14:27:14.498496",
        "meta_mean_motion": 15.49685042,
        "meta_eccentricity": 0.00031934,
        "meta_inclination": 51.6321,
        "meta_ra_of_asc_node": 103.5427,
        "meta_arg_of_pericenter": 277.2005,
        "meta_mean_anomaly": 82.862,
        "meta_ephemeris_type": 0,
        "meta_classification_type": "U",
        "meta_norad_cat_id": 65304,
        "meta_element_set_no": 999,
        "meta_rev_at_epoch": 11,
        "meta_bstar": 0.00012983891,
        "meta_mean_motion_dot": 6.881e-05,
        "meta_mean_motion_ddot": 0,
        "tle_line1": "1 65304U 25186A   25354.60225114  .00006881  00000+0  12984-3 0  9999",
        "tle_line2": "2 65304  51.6321 103.5427 0003193 277.2005  82.8620 15.49685042   111"
      },
      "geometry": {
        "type": "Point",
        "coordinates": [
          60.556609015751455,
          -40.22645598616949
        ]
      }
    },
    {
      "type": "Feature",
      "properties": {
        "norad_id": 65586,
        "name": "PROGRESS-MS 32",
        "group": "stations",
        "lat": -40.226455535481065,
        "lon": 60.55660984028636,
        "alt_km": 419.9223255524721,
        "timestamp": "2025-12-20T18:51:30.476877+00:00",
        "meta_object_name": "PROGRESS-MS 32",
        "meta_object_id": "2025-204A",
        "meta_epoch": "2025-12-20T14:27:14.498496",
        "meta_mean_motion": 15.49685042,
        "meta_eccentricity": 0.00031934,
        "meta_inclination": 51.6321,
        "meta_ra_of_asc_node": 103.5427,
        "meta_arg_of_pericenter": 277.2005,
        "meta_mean_anomaly": 82.862,
        "meta_ephemeris_type": 0,
        "meta_classification_type": "U",
        "meta_norad_cat_id": 65586,
        "meta_element_set_no": 999,
        "meta_rev_at_epoch": 27,
        "meta_bstar": 0.00012983891,
        "meta_mean_motion_dot": 6.881e-05,
        "meta_mean_motion_ddot": 0,
        "tle_line1": "1 65586U 25204A   25354.60225114  .00006881  00000+0  12984-3 0  9992",
        "tle_line2": "2 65586  51.6321 103.5427 0003193 277.2005  82.8620 15.49685042   270"
      },
      "geometry": {
        "type": "Point",
        "coordinates": [
          60.55660984028636,
          -40.226455535481065
        ]
      }
    },
    {
      "type": "Feature",
      "properties": {
        "norad_id": 65616,
        "name": "CYGNUS NG-23",
        "group": "stations",
        "lat": -40.2264550847917,
        "lon": 60.55661066482299,
        "alt_km": 419.9223255458119,
        "timestamp": "2025-12-20T18:51:30.476889+00:00",
        "meta_object_name": "CYGNUS NG-23",
        "meta_object_id": "2025-208A",
        "meta_epoch": "2025-12-20T14:27:14.498496",
        "meta_mean_motion": 15.49685042,
        "meta_eccentricity": 0.00031934,
        "meta_inclination": 51.6321,
        "meta_ra_of_asc_node": 103.5427,
        "meta_arg_of_pericenter": 277.2005,
        "meta_mean_anomaly": 82.862,
        "meta_ephemeris_type": 0,
        "meta_classification_type": "U",
        "meta_norad_cat_id": 65616,
        "meta_element_set_no": 999,
        "meta_rev_at_epoch": 22,
        "meta_bstar": 0.00012983891,
        "meta_mean_motion_dot": 6.881e-05,
        "meta_mean_motion_ddot": 0,
        "tle_line1": "1 65616U 25208A   25354.60225114  .00006881  00000+0  12984-3 0  9990",
        "tle_line2": "2 65616  51.6321 103.5427 0003193 277.2005  82.8620 15.49685042   229"
      },
      "geometry": {
        "type": "Point",
        "coordinates": [
          60.55661066482299,
          -40.2264550847917
        ]
      }
    },
    {
      "type": "Feature",
      "properties": {
        "norad_id": 65729,
        "name": "DRAGONFLY",
        "group": "stations",
        "lat": -46.94967595442236,
        "lon": -27.492481358037974,
        "alt_km": 349.3947299598176,
        "timestamp": "2025-12-20T18:51:30.476904+00:00",
        "meta_object_name": "DRAGONFLY",
        "meta_object_id": "1998-067XH",
        "meta_epoch": "2025-12-20T11:42:45.439488",
        "meta_mean_motion": 15.74448787,
        "meta_eccentricity": 0.00074375,
        "meta_inclination": 51.6254,
        "meta_ra_of_asc_node": 96.0114,
        "meta_arg_of_pericenter": 325.9909,
        "meta_mean_anomaly": 34.0612,
        "meta_ephemeris_type": 0,
        "meta_classification_type": "U",
        "meta_norad_cat_id": 65729,
        "meta_element_set_no": 999,
        "meta_rev_at_epoch": 1438,
        "meta_bstar": 0.00098005582,
        "meta_mean_motion_dot": 0.00147536,
        "meta_mean_motion_ddot": 0,
        "tle_line1": "1 65729U 98067XH  25354.48802592  .00147536  00000+0  98006-3 0  9997",
        "tle_line2": "2 65729  51.6254  96.0114 0007437 325.9909  34.0612 15.74448787 14380"
      },
      "geometry": {
        "type": "Point",
        "coordinates": [
          -27.492481358037974,
          -46.94967595442236
        ]
      }
    }
  ]
}